MOLNIYA 2-9             
1 07276U 74026A   24150.35980793  .00000173  00000+0  00000+0 0  9996
2 07276  64.2913 131.0191 6434418 271.2693  21.2000  2.45097971266660
MOLNIYA 2-10            
1 07376U 74056A   24153.88649716  .00000479  00000+0  00000+0 0  9997
2 07376  65.1517  18.5061 6846584 279.4837  14.8585  2.01060050364741
MOLNIYA 1-S             
1 07392U 74060A   24154.86319587 -.00000323  00000+0  00000+0 0  9998
2 07392   3.2829 270.9894 0009914 234.5375 162.2573  1.00244704126713
MOLNIYA 1-29            
1 07780U 75036A   24150.02215851  .00000145  00000+0 -14133+0 0  9990
2 07780  63.4650 141.4336 6708138 284.0690  14.4418  2.00586222359895
MOLNIYA 2-14            
1 08195U 75081A   24150.26106503 -.00000207  00000+0  00000+0 0  9997
2 08195  63.6125 114.3361 6704803 288.9085  13.0711  2.02062442357274
MOLNIYA 1-32            
1 08601U 76006A   24150.93963517  .00000425  00000+0  00000+0 0  9998
2 08601  63.6509 210.4208 6847569 282.2149  14.1610  2.00085412 66913
MOLNIYA 1-36            
1 09880U 77021A   24154.04297514 -.00000903  00000+0  00000+0 0  9991
2 09880  63.5893 185.4037 6770033 287.1078  13.2272  2.00757562243727
MOLNIYA 3-8             
1 10455U 77105A   24153.29333288 -.00000703  00000+0  00000+0 0  9997
2 10455  63.6235 257.4852 7073762 282.1392  12.6645  2.00444085341485
MOLNIYA 1-40            
1 10925U 78055A   24154.43962271 -.00000803  00000+0  00000+0 0  9992
2 10925  63.9143 308.1786 7157948 279.5317  12.6754  2.00557245337045
MOLNIYA 3-10            
1 11057U 78095A   24154.88989465  .00000036  00000+0 -45552-3 0  9999
2 11057  63.2789 141.2308 5659255 314.7621  11.1653  4.09907180413093
MOLNIYA 3-13            
1 11896U 80063A   24154.71104814 -.00000239  00000+0  00000+0 0  9997
2 11896  63.3184  37.7853 7324419 278.1539  11.9822  2.00583426321469
MOLNIYA 1-52            
1 13012U 81123A   24153.20440686  .00001691  00000+0  21488-1 0  9997
2 13012  61.5246 179.4366 7156936 264.2326  17.8180  2.00678699310917
MOLNIYA 1-53            
1 13070U 82015A   24154.88620543 -.00001016  00000+0 -97061-2 0  9993
2 13070  62.6625 130.0352 6936823 283.2969  13.1694  2.00487649309635
MOLNIYA 3-20            
1 13875U 83015A   24153.75265586 -.00000638  00000+0 -17667-2 0  9997
2 13875  62.0871 243.4821 7195506 265.9698  16.8681  2.00820779238066
MOLNIYA 1-63            
1 15429U 84124A   24152.16546469 -.00000652  00000+0  00000+0 0  9997
2 15429  63.6569  91.6824 7031455 256.2688 259.9703  2.00871894289070
MOLNIYA 3-24            
1 15738U 85040A   24152.45531253  .00000047  00000+0  74304-3 0  9994
2 15738  62.8351 302.0469 6910781 249.4425  28.0192  2.55651605322124
MOLNIYA 3-27            
1 16393U 85117A   24150.56756550 -.00000155  00000+0  00000+0 0  9995
2 16393  63.4516 340.2824 7173658 245.6832  27.2994  2.12399519289305
MOLNIYA 1-69            
1 17078U 86089A   24152.73840638 -.00000716  00000+0  00000+0 0  9990
2 17078  63.8532 112.3940 7018044 252.9531  24.6015  2.00487672275168
MOLNIYA 3-31            
1 17328U 87008A   24153.68077829 -.00000736  00000+0 -13913-2 0  9992
2 17328  63.2780  31.4683 7379240 253.3504  20.3700  2.00602927270210
MOLNIYA 1-71            
1 18946U 88017A   24152.66939143  .00000306  00000+0  11266-2 0  9993
2 18946  63.0241  18.6241 7456328 258.0234  17.4687  2.00654930265383
MOLNIYA 1-75            
1 19807U 89014A   24147.47222841  .00000315  00000+0  00000+0 0  9992
2 19807  63.8364 212.3652 6619865 261.9774  23.9317  2.00565161258214
MOLNIYA 1-80            
1 21118U 91012A   24153.40495227 -.00000182  00000+0  00000+0 0  9994
2 21118  65.0209 260.0483 6500167 267.9309  22.1494  2.05246417245656
MOLNIYA 3-40            
1 21196U 91022A   24154.56386081  .00000771  00000+0  00000+0 0  9999
2 21196  64.8324 254.0289 6531952 265.1082  23.2054  2.02995409244223
MOLNIYA 1-81            
1 21426U 91043A   24152.33637159  .00000060  00000+0  00000+0 0  9997
2 21426  63.5762 257.7538 6869328 263.2856  20.8952  2.00595028241483
MOLNIYA 3-41            
1 21706U 91065A   24153.83182903 -.00000992  00000+0  00000+0 0  9995
2 21706  63.8819  77.8521 7243950 251.2092  23.0347  2.04363786241481
MOLNIYA 3-42            
1 22178U 92067A   24152.83444904  .00000198  00000+0  00000+0 0  9990
2 22178  64.6708 139.7814 6594925 255.5130  27.7535  2.20434768 95804
MOLNIYA 1-86            
1 22671U 93035A   24154.78154736  .00000942  00000+0  72944-3 0  9998
2 22671  63.0224 179.2602 4891971  18.5402 354.4519  5.63301128392625
MOLNIYA 1-87            
1 22949U 93079A   24152.32841350  .00001082  00000+0  00000+0 0  9993
2 22949  64.8869   8.1546 6976812 278.3165  14.2886  2.02848987 89413
MOLNIYA 1-88            
1 23420U 94081A   24154.19849621 -.00000070  00000+0  00000+0 0  9995
2 23420  64.4284  35.7949 5900650 270.1690  26.4812  3.34493482137642
MOLNIYA 3-47            
1 23642U 95042A   24150.81847612  .00000658  00000+0  00000+0 0  9993
2 23642  64.9534 350.2384 6959035 278.3845  14.3732  2.01921653211406
MOLNIYA 1-90            
1 24960U 97054A   24154.46609859 -.00000090  00000+0 -88140-3 0  9993
2 24960  64.2720   1.6783 6096269 291.8216  15.8887  3.18686169230826
MOLNIYA 1-91            
1 25485U 98054A   24152.74114540  .00000001  00000+0  00000+0 0  9999
2 25485  63.9662  38.1107 6824669 290.6086  11.9383  2.36442028195922
MOLNIYA 3-50            
1 25847U 99036A   24153.26441182 -.00000076  00000+0  32247-2 0  9999
2 25847  63.4599 235.5761 7019433 282.3096  13.0041  2.00596325182451
